{"type":"FeatureCollection","features":[{"type":"Feature","properties":{"featurecla":"Admin-1 states provinces","scalerank":2,"adm1_code":"CHN-1810","diss_me":1810,"iso_3166_2":"CN-YN","wikipedia":null,"iso_a2":"CN","adm0_sr":1,"name":"Yunnan","name_alt":"Yúnnán","name_local":"雲南|云南","type":"Shěng","type_en":"Province","code_local":null,"code_hasc":"CN.YN","note":null,"hasc_maybe":null,"region":"Southwest China","region_cod":"5","provnum_ne":47,"gadm_level":1,"check_me":20,"datarank":1,"abbrev":null,"postal":"YN","area_sqkm":0,"sameascity":-99,"labelrank":2,"name_len":6,"mapcolor9":4,"mapcolor13":3,"fips":"CH29","fips_alt":null,"woe_id":12578018,"woe_label":"Yunnan, CN, China","woe_name":"Yunnan","latitude":24.4603,"longitude":101.661,"sov_a3":"CH1","adm0_a3":"CHN","adm0_label":2,"admin":"China","geonunit":"China","gu_a3":"CHN","gn_id":1785694,"gn_name":"Yunnan Sheng","gns_id":-1937567,"gns_name":"Yunnan Sheng","gn_level":1,"gn_region":null,"gn_a1_code":"CN.29","region_sub":"Western","sub_code":null,"gns_level":1,"gns_lang":"zho","gns_adm1":"CH29","gns_region":null,"min_label":4.6,"max_label":10.1,"min_zoom":4.6,"wikidataid":"Q43194","name_ar":"يونان","name_bn":"ইউন্নান","name_de":"Yunnan","name_en":"Yunnan","name_es":"Yunnan","name_fr":"Yunnan","name_el":"Γιουνάν","name_hi":"युन्नान","name_hu":"Jünnan","name_id":"Yunnan","name_it":"Yunnan","name_ja":"雲南省","name_ko":"윈난성","name_nl":"Yunnan","name_pl":"Junnan","name_pt":"Yunnan","name_ru":"Юньнань","name_sv":"Yunnan","name_tr":"Yünnan","name_vi":"Vân Nam","name_zh":"云南省","ne_id":1159312665,"name_he":"יונאן","name_uk":"Юньнань","name_ur":"یوننان","name_fa":"یوننان","name_zht":"雲南省","FCLASS_ISO":null,"FCLASS_US":null,"FCLASS_FR":null,"FCLASS_RU":null,"FCLASS_ES":null,"FCLASS_CN":null,"FCLASS_TW":null,"FCLASS_IN":null,"FCLASS_NP":null,"FCLASS_PK":null,"FCLASS_DE":null,"FCLASS_GB":null,"FCLASS_BR":null,"FCLASS_IL":null,"FCLASS_PS":null,"FCLASS_SA":null,"FCLASS_EG":null,"FCLASS_MA":null,"FCLASS_PT":null,"FCLASS_AR":null,"FCLASS_JP":null,"FCLASS_KO":null,"FCLASS_VN":null,"FCLASS_TR":null,"FCLASS_ID":null,"FCLASS_PL":null,"FCLASS_GR":null,"FCLASS_IT":null,"FCLASS_NL":null,"FCLASS_SE":null,"FCLASS_BD":null,"FCLASS_UA":null,"FCLASS_TLC":null},"bbox":[97.513252,21.134473,106.199957,29.223772],"geometry":{"type":"Polygon","coordinates":[[[101.867921,22.378842],[101.8426,22.383338],[101.817795,22.406334],[101.784877,22.472221],[101.75506,22.495527],[101.750616,22.496044],[101.741779,22.496044],[101.71315,22.491548],[101.689121,22.478887],[101.668657,22.462299],[101.654549,22.446125],[101.645092,22.424214],[101.644162,22.404008],[101.645713,22.384526],[101.643697,22.364683],[101.641113,22.363287],[101.623698,22.346647],[101.62251,22.342358],[101.619874,22.326442],[101.606128,22.284842],[101.601219,22.276988],[101.58799,22.271355],[101.575743,22.273112],[101.563702,22.276781],[101.55099,22.276678],[101.540654,22.271458],[101.531714,22.263397],[101.515746,22.245362],[101.518227,22.228205],[101.549026,22.19353],[101.561532,22.176115],[101.566958,22.149347],[101.561842,22.130072],[101.55502,22.112398],[101.555434,22.090332],[101.564942,22.069507],[101.592176,22.028114],[101.600392,22.007495],[101.6068,21.967601],[101.616309,21.953648],[101.638116,21.940884],[101.673669,21.931376],[101.680594,21.922642],[101.682454,21.914839],[101.683075,21.907139],[101.685865,21.898613],[101.708706,21.869571],[101.721263,21.844353],[101.726173,21.837273],[101.751081,21.816137],[101.751546,21.80637],[101.73165,21.750508],[101.727981,21.73268],[101.72855,21.717539],[101.732787,21.711441],[101.749117,21.698057],[101.754801,21.689788],[101.755628,21.680021],[101.752321,21.659144],[101.755938,21.648654],[101.770821,21.638835],[101.789528,21.634029],[101.803842,21.625916],[101.806168,21.605969],[101.793559,21.588244],[101.772682,21.582508],[101.750926,21.579666],[101.736198,21.570881],[101.734751,21.554396],[101.748239,21.514502],[101.744259,21.495588],[101.729687,21.474246],[101.725553,21.375389],[101.715579,21.338182],[101.715114,21.321129],[101.722504,21.30423],[101.736508,21.292293],[101.788546,21.274206],[101.801155,21.267075],[101.812266,21.258135],[101.820224,21.247283],[101.823738,21.234467],[101.822808,21.224132],[101.82149,21.221071],[101.819294,21.215967],[101.813299,21.209559],[101.805238,21.204495],[101.796039,21.202945],[101.77356,21.207389],[101.760072,21.195968],[101.763586,21.184651],[101.770201,21.17044],[101.768453,21.16045],[101.766739,21.150648],[101.75599,21.143258],[101.73749,21.137574],[101.717905,21.134473],[101.704262,21.135093],[101.688294,21.145842],[101.670155,21.177055],[101.655118,21.189199],[101.635946,21.189457],[101.596517,21.173386],[101.581789,21.175659],[101.577241,21.185168],[101.580962,21.194728],[101.586646,21.204237],[101.588197,21.213332],[101.583959,21.22439],[101.57967,21.227594],[101.5729,21.228163],[101.539104,21.23886],[101.517607,21.242632],[101.495127,21.242839],[101.381491,21.222478],[101.362267,21.215812],[101.313898,21.184755],[101.292711,21.176073],[101.275296,21.174109],[101.259741,21.179484],[101.244342,21.192868],[101.234782,21.206252],[101.220364,21.233692],[101.208995,21.245526],[101.219072,21.282475],[101.220364,21.296272],[101.2184,21.299941],[101.209512,21.308675],[101.207445,21.314824],[101.222844,21.335081],[101.234782,21.363658],[101.233128,21.37172],[101.230802,21.371772],[101.226462,21.370893],[101.207961,21.383502],[101.179126,21.398178],[101.171426,21.403398],[101.168274,21.424533],[101.187756,21.505872],[101.186567,21.535327],[101.174527,21.551657],[101.159024,21.552691],[101.154218,21.568039],[101.157732,21.586229],[101.167654,21.600181],[101.173855,21.611912],[101.166724,21.623281],[101.168842,21.637853],[101.161453,21.658369],[101.149257,21.676766],[101.136338,21.684724],[101.127656,21.695163],[101.124866,21.744152],[101.118871,21.75981],[101.082801,21.766735],[101.068693,21.762032],[101.055309,21.754539],[101.042907,21.745392],[100.992781,21.711441],[100.974281,21.704154],[100.877491,21.677334],[100.834909,21.657542],[100.79703,21.626123],[100.75662,21.569847],[100.703961,21.516414],[100.661535,21.495485],[100.661328,21.495278],[100.645774,21.479879],[100.621744,21.469078],[100.571825,21.455074],[100.545986,21.453007],[100.4971,21.461792],[100.474259,21.456831],[100.456689,21.455022],[100.44346,21.463497],[100.434262,21.47838],[100.429301,21.495382],[100.399122,21.518894],[100.383671,21.527834],[100.363259,21.531762],[100.341968,21.530367],[100.326517,21.524269],[100.314631,21.512952],[100.302487,21.495485],[100.30228,21.495278],[100.289516,21.483134],[100.275202,21.475176],[100.244093,21.464531],[100.230243,21.456831],[100.197894,21.433215],[100.187145,21.427892],[100.162496,21.436367],[100.128337,21.482359],[100.10777,21.495537],[100.09728,21.508301],[100.089994,21.52892],[100.086066,21.550934],[100.085601,21.567574],[100.08865,21.581836],[100.094851,21.598838],[100.103946,21.615633],[100.115728,21.629482],[100.126115,21.634856],[100.136192,21.63682],[100.143737,21.640024],[100.146321,21.649222],[100.142807,21.654907],[100.135159,21.662348],[100.120534,21.673665],[100.082345,21.684466],[99.996718,21.686119],[99.960699,21.704774],[99.95026,21.721156],[99.939202,21.777018],[99.922097,21.812261],[99.917963,21.82916],[99.920185,21.852001],[99.955273,21.924554],[99.96566,21.963002],[99.950467,21.995351],[99.939822,22.005893],[99.934344,22.018864],[99.934913,22.032506],[99.942406,22.045529],[99.866855,22.05788],[99.847838,22.055037],[99.842308,22.047027],[99.84174,22.02708],[99.833678,22.019484],[99.821018,22.017779],[99.813421,22.022998],[99.807478,22.030956],[99.799882,22.037467],[99.739162,22.066768],[99.723659,22.070592],[99.703816,22.061239],[99.69379,22.046924],[99.683868,22.039018],[99.663818,22.048733],[99.65927,22.054572],[99.650072,22.071936],[99.642217,22.079945],[99.633536,22.084751],[99.538968,22.106714],[99.505068,22.103355],[99.490392,22.104337],[99.438612,22.124232],[99.42497,22.122423],[99.364922,22.098859],[99.329988,22.095552],[99.252887,22.102786],[99.212269,22.11245],[99.166381,22.132087],[99.14447,22.153533],[99.175062,22.168674],[99.159353,22.184694],[99.166381,22.204641],[99.19935,22.245258],[99.206172,22.26133],[99.218367,22.310009],[99.225705,22.321223],[99.243689,22.341221],[99.248339,22.353675],[99.246376,22.365923],[99.240588,22.372951],[99.237384,22.380134],[99.243068,22.393156],[99.282756,22.411915],[99.345078,22.472841],[99.353449,22.484107],[99.35779,22.495476],[99.356343,22.506173],[99.346628,22.523071],[99.344148,22.533251],[99.347041,22.553353],[99.357377,22.587098],[99.355,22.608544],[99.307871,22.719596],[99.307974,22.745176],[99.316966,22.754116],[99.327198,22.760498],[99.338463,22.764916],[99.350659,22.768146],[99.35903,22.77489],[99.378874,22.813234],[99.403575,22.841062],[99.414428,22.856901],[99.416908,22.874341],[99.411224,22.919248],[99.413394,22.930746],[99.42993,22.936741],[99.484501,22.910256],[99.5153,22.90881],[99.538038,22.926431],[99.534627,22.949324],[99.498763,22.995161],[99.490392,23.012007],[99.491632,23.028208],[99.495043,23.043478],[99.493079,23.057379],[99.478196,23.065751],[99.403265,23.068335],[99.381045,23.081641],[99.350969,23.119262],[99.333812,23.129623],[99.314072,23.126471],[99.302186,23.112596],[99.294021,23.096783],[99.284823,23.088153],[99.266736,23.083863],[99.257435,23.079213],[99.236144,23.062314],[99.224878,23.056888],[99.21661,23.057379],[99.209582,23.061539],[99.202141,23.067275],[99.19966,23.073838],[99.19935,23.092261],[99.194183,23.095775],[99.184881,23.094845],[99.18271,23.095206],[99.17868,23.096421],[99.164004,23.097687],[99.138682,23.105206],[99.13,23.106239],[99.092173,23.101511],[99.074913,23.101666],[99.05507,23.109598],[99.039257,23.127142],[99.033159,23.146418],[99.026441,23.160448],[99.009388,23.162153],[98.990371,23.160034],[98.970734,23.162205],[98.933423,23.172153],[98.859009,23.179387],[98.860146,23.212279],[98.910686,23.297597],[98.896526,23.32328],[98.860456,23.322376],[98.853428,23.324882],[98.853221,23.334985],[98.86211,23.340592],[98.873789,23.344571],[98.88185,23.349687],[98.890118,23.367903],[98.892289,23.386894],[98.889602,23.406789],[98.875546,23.446425],[98.86397,23.466605],[98.848881,23.480403],[98.83007,23.480015],[98.809813,23.474098],[98.799995,23.480738],[98.780874,23.532854],[98.784388,23.547039],[98.796274,23.557917],[98.8433,23.584014],[98.850224,23.590628],[98.857356,23.604348],[98.856012,23.610007],[98.849604,23.614735],[98.807953,23.675791],[98.800305,23.692715],[98.799065,23.743229],[98.793173,23.758473],[98.777877,23.7693],[98.738396,23.775552],[98.708321,23.784699],[98.684963,23.784803],[98.675661,23.787386],[98.663672,23.796947],[98.663569,23.80307],[98.668323,23.808703],[98.671424,23.816739],[98.664189,23.890378],[98.664809,23.903374],[98.672974,23.928308],[98.674524,23.936886],[98.665739,23.953216],[98.658815,23.961123],[98.663259,23.969546],[98.679899,23.976264],[98.699226,23.981561],[98.716796,23.988408],[98.765578,24.027062],[98.856219,24.083802],[98.873479,24.114498],[98.866967,24.143256],[98.865727,24.145685],[98.855289,24.138967],[98.818082,24.128968],[98.716176,24.121345],[98.681759,24.106876],[98.640418,24.100752],[98.612513,24.087549],[98.597113,24.083079],[98.585227,24.075715],[98.570241,24.082097],[98.54306,24.093957],[98.503269,24.121268],[98.474537,24.127831],[98.434952,24.13026],[98.395575,24.128063],[98.378728,24.122405],[98.347309,24.104938],[98.330669,24.099486],[98.293256,24.100132],[98.219152,24.117366],[98.181531,24.118658],[98.10505,24.101527],[97.889973,24.022617],[97.87664,24.014401],[97.836333,23.971768],[97.817832,23.958151],[97.804087,23.954508],[97.789514,23.953139],[97.76781,23.946472],[97.748173,23.93407],[97.696806,23.887122],[97.676963,23.878699],[97.655672,23.872549],[97.647345,23.868524],[97.637068,23.863557],[97.624666,23.846711],[97.619705,23.865986],[97.615468,23.875133],[97.609887,23.883143],[97.572679,23.90756],[97.532992,23.923709],[97.516456,23.942829],[97.707658,24.125299],[97.720061,24.147442],[97.723058,24.171265],[97.718717,24.181548],[97.704558,24.199248],[97.701561,24.210926],[97.704661,24.221727],[97.711172,24.228471],[97.71851,24.233974],[97.724091,24.241519],[97.718407,24.277667],[97.64451,24.302394],[97.638205,24.328103],[97.653605,24.338722],[97.674275,24.340841],[97.689572,24.346474],[97.688331,24.367713],[97.680993,24.377764],[97.662596,24.390063],[97.657325,24.402],[97.655465,24.412077],[97.652261,24.422722],[97.6473,24.432334],[97.639859,24.439285],[97.624356,24.442282],[97.600688,24.44192],[97.519556,24.430784],[97.513252,24.438587],[97.513872,24.461686],[97.538573,24.597259],[97.532785,24.723324],[97.536093,24.745028],[97.536196,24.74508],[97.603995,24.786447],[97.642546,24.816781],[97.66394,24.829778],[97.685954,24.833524],[97.726572,24.826289],[97.748483,24.82647],[97.765226,24.834661],[97.772977,24.854686],[97.760988,24.870292],[97.724091,24.897215],[97.708278,24.927291],[97.703318,24.960416],[97.705178,25.028835],[97.699597,25.065009],[97.703628,25.073923],[97.721611,25.079271],[97.737527,25.090511],[97.754064,25.113559],[97.777008,25.158621],[97.800986,25.237634],[97.82362,25.261612],[97.860311,25.244093],[97.871783,25.22766],[97.878811,25.213553],[97.888939,25.205646],[97.90992,25.207558],[97.930797,25.218513],[97.976272,25.272257],[97.992395,25.282489],[98.03353,25.301299],[98.044899,25.311944],[98.062572,25.354319],[98.075698,25.376075],[98.089961,25.385945],[98.108357,25.388891],[98.112078,25.396229],[98.110218,25.41044],[98.111975,25.448474],[98.108874,25.45824],[98.10474,25.466974],[98.099469,25.493329],[98.099779,25.500047],[98.104637,25.506765],[98.123033,25.522216],[98.134196,25.534618],[98.139363,25.550225],[98.138433,25.598955],[98.140087,25.611461],[98.150215,25.613063],[98.232381,25.586553],[98.24716,25.579163],[98.276616,25.552447],[98.289432,25.55038],[98.312066,25.557459],[98.332633,25.566968],[98.347102,25.57782],[98.357231,25.592754],[98.36984,25.636783],[98.375214,25.649288],[98.413248,25.692076],[98.416349,25.70019],[98.416659,25.712592],[98.418726,25.724219],[98.424721,25.730834],[98.432265,25.736105],[98.439293,25.743598],[98.452626,25.777963],[98.461307,25.794654],[98.474537,25.805764],[98.498101,25.830724],[98.50947,25.838062],[98.526833,25.838786],[98.539546,25.833721],[98.562387,25.816358],[98.590912,25.806385],[98.600317,25.801734],[98.610032,25.800597],[98.626052,25.806488],[98.677832,25.843282],[98.68486,25.8531],[98.690234,25.865554],[98.692404,25.87899],[98.689821,25.891599],[98.684653,25.897593],[98.672354,25.901831],[98.66729,25.905758],[98.658091,25.925034],[98.625328,25.969992],[98.616233,25.979397],[98.604244,25.982498],[98.592462,25.980741],[98.582437,25.982291],[98.575409,25.995107],[98.577166,26.017328],[98.572618,26.03557],[98.553808,26.071071],[98.547297,26.08828],[98.54554,26.105643],[98.550191,26.120784],[98.563007,26.131223],[98.602177,26.139956],[98.619334,26.145744],[98.625742,26.144348],[98.624295,26.108485],[98.630806,26.096909],[98.644449,26.097891],[98.680829,26.12497],[98.68672,26.133238],[98.686513,26.154115],[98.692404,26.159955],[98.700259,26.165329],[98.70553,26.174941],[98.701499,26.191167],[98.677005,26.23933],[98.66822,26.248218],[98.648169,26.244807],[98.642175,26.254523],[98.644552,26.271576],[98.649513,26.290593],[98.657781,26.311625],[98.697675,26.354051],[98.707391,26.371053],[98.713488,26.38945],[98.717209,26.408725],[98.721137,26.538898],[98.727958,26.572591],[98.748525,26.605974],[98.755553,26.625043],[98.750695,26.646127],[98.747078,26.655738],[98.746768,26.66442],[98.747388,26.672688],[98.746458,26.68106],[98.731989,26.713513],[98.734366,26.734287],[98.749248,26.771442],[98.750385,26.792009],[98.742427,26.810406],[98.718139,26.842497],[98.714522,26.862031],[98.718656,26.872676],[98.733125,26.887921],[98.736329,26.898256],[98.735709,26.907299],[98.712662,26.995149],[98.72062,27.013959],[98.731679,27.031064],[98.737776,27.048686],[98.731368,27.068788],[98.716486,27.082482],[98.70274,27.086823],[98.691371,27.092404],[98.682689,27.110078],[98.672561,27.175603],[98.673594,27.207901],[98.680209,27.237047],[98.704187,27.304174],[98.707701,27.337247],[98.697365,27.368925],[98.691061,27.373162],[98.683723,27.373627],[98.677315,27.376108],[98.674421,27.386598],[98.668323,27.475249],[98.671114,27.516151],[98.681759,27.556484],[98.679279,27.577336],[98.674214,27.586121],[98.665739,27.597076],[98.655921,27.606766],[98.647239,27.611727],[98.635044,27.611055],[98.625845,27.605551],[98.616543,27.59842],[98.604554,27.592735],[98.578406,27.591728],[98.56435,27.603536],[98.54337,27.642526],[98.522182,27.656298],[98.492313,27.64343],[98.474537,27.657176],[98.42224,27.680895],[98.410251,27.684254],[98.400019,27.675728],[98.397435,27.656814],[98.398159,27.619814],[98.392888,27.587154],[98.383276,27.555787],[98.363949,27.532171],[98.328602,27.522869],[98.294703,27.536615],[98.275686,27.570101],[98.254395,27.648133],[98.238065,27.680224],[98.204372,27.727301],[98.201788,27.736551],[98.211504,27.760322],[98.208403,27.766162],[98.202098,27.771252],[98.197861,27.780631],[98.198481,27.800449],[98.200651,27.813601],[98.196621,27.823187],[98.162411,27.842849],[98.145771,27.860729],[98.140087,27.878558],[98.156727,27.889203],[98.176674,27.898117],[98.177294,27.912923],[98.165822,27.929692],[98.148975,27.944549],[98.113525,27.961705],[98.107117,27.973074],[98.118486,27.994726],[98.122517,28.015449],[98.127994,28.105469],[98.126961,28.124279],[98.118693,28.14079],[98.115002,28.143888],[98.115179,28.143993],[98.136263,28.156447],[98.211969,28.191587],[98.23016,28.202878],[98.247678,28.220035],[98.261475,28.239672],[98.270829,28.261893],[98.282921,28.315352],[98.299768,28.354807],[98.326019,28.344446],[98.336768,28.335428],[98.34576,28.326023],[98.373665,28.28985],[98.409994,28.250602],[98.431543,28.236623],[98.447562,28.231714],[98.479602,28.242643],[98.489885,28.248069],[98.55722,28.299875],[98.575823,28.317548],[98.613547,28.367571],[98.629567,28.397363],[98.640419,28.424131],[98.644294,28.443897],[98.644449,28.4594],[98.642899,28.473146],[98.640212,28.485858],[98.635768,28.500302],[98.612824,28.539421],[98.594013,28.583165],[98.585022,28.626548],[98.584505,28.649156],[98.589207,28.670292],[98.597579,28.683211],[98.607346,28.694864],[98.618715,28.704243],[98.672355,28.736205],[98.677522,28.742354],[98.678659,28.749124],[98.678143,28.757056],[98.665223,28.804909],[98.661141,28.813229],[98.656697,28.819068],[98.653079,28.825579],[98.651581,28.83594],[98.652976,28.844984],[98.655095,28.850255],[98.654526,28.855164],[98.641659,28.871029],[98.638713,28.878651],[98.638248,28.930534],[98.635303,28.941386],[98.642124,28.954435],[98.646155,28.964382],[98.651271,28.970067],[98.66481,28.974175],[98.728992,28.985234],[98.742531,28.988903],[98.751833,28.994019],[98.76036,29.000582],[98.765786,29.002804],[98.772762,29.00345],[98.778705,29.003036],[98.783046,29.001589],[98.784596,29.000737],[98.785009,29.000349],[98.785009,29.000246],[98.820408,28.886041],[98.841233,28.836716],[98.85069,28.820076],[98.860767,28.813229],[98.873479,28.811808],[98.897044,28.816329],[98.911978,28.822143],[98.94562,28.842012],[98.949961,28.848472],[98.950891,28.859376],[98.947067,28.868548],[98.938023,28.880201],[98.91911,28.899477],[98.908878,28.91237],[98.907172,28.922188],[98.908413,28.936425],[98.917094,28.961488],[98.932442,28.986345],[98.943759,28.996525],[98.948927,29.000168],[98.992645,29.022467],[99.003497,29.033913],[99.007735,29.043731],[99.008355,29.057891],[99.006288,29.073161],[99.000397,29.092721],[98.994816,29.105717],[98.983654,29.125303],[98.977142,29.140547],[98.972181,29.159022],[98.974972,29.18163],[98.980243,29.193154],[98.990165,29.20199],[98.998123,29.205143],[99.005668,29.206745],[99.028974,29.207391],[99.043392,29.209535],[99.060445,29.215504],[99.103905,29.222919],[99.108814,29.223772],[99.10406,29.092281],[99.121061,28.964666],[99.117702,28.921594],[99.099254,28.856043],[99.096618,28.83594],[99.100546,28.813565],[99.118942,28.770932],[99.124575,28.749667],[99.123852,28.739047],[99.118271,28.720159],[99.117702,28.708713],[99.120286,28.698584],[99.128916,28.677604],[99.130776,28.664633],[99.135117,28.654634],[99.154341,28.640733],[99.15863,28.630191],[99.16049,28.617194],[99.169482,28.602492],[99.172376,28.592648],[99.171859,28.5827],[99.166795,28.565104],[99.165503,28.554769],[99.1762,28.532238],[99.179197,28.523737],[99.180489,28.504772],[99.17837,28.482241],[99.172428,28.463379],[99.162092,28.455473],[99.162557,28.438161],[99.226946,28.339407],[99.244826,28.321863],[99.255368,28.314499],[99.265135,28.311476],[99.273662,28.307316],[99.27485,28.297575],[99.273455,28.286258],[99.274747,28.277318],[99.278726,28.274114],[99.293402,28.264787],[99.299293,28.259955],[99.304461,28.250912],[99.308492,28.240938],[99.314796,28.232876],[99.326888,28.229543],[99.339808,28.224117],[99.38151,28.184533],[99.3889,28.168178],[99.38673,28.139394],[99.398925,28.126501],[99.398719,28.131539],[99.402336,28.188848],[99.416444,28.254761],[99.413033,28.267138],[99.399959,28.295948],[99.388642,28.334317],[99.385076,28.383772],[99.387247,28.408137],[99.390657,28.426792],[99.396548,28.446171],[99.397995,28.456558],[99.396238,28.467074],[99.387247,28.475885],[99.375154,28.491078],[99.371123,28.500767],[99.370968,28.50286],[99.371123,28.508958],[99.373449,28.518931],[99.37903,28.530068],[99.385386,28.536863],[99.393138,28.54278],[99.404506,28.547999],[99.446674,28.561539],[99.467965,28.572184],[99.482693,28.576111],[99.498971,28.578204],[99.502898,28.579367],[99.510443,28.587558],[99.514991,28.595051],[99.521657,28.610166],[99.534369,28.680808],[99.541346,28.696027],[99.551268,28.707163],[99.578914,28.726593],[99.590852,28.74083],[99.599068,28.757315],[99.608215,28.794367],[99.615243,28.805064],[99.628679,28.814624],[99.644078,28.819895],[99.665007,28.824391],[99.679735,28.830489],[99.704747,28.844648],[99.712808,28.845811],[99.718854,28.842271],[99.72211,28.833434],[99.72428,28.818965],[99.72304,28.774084],[99.725365,28.761552],[99.732342,28.745016],[99.744951,28.727239],[99.754976,28.71693],[99.762159,28.711995],[99.777507,28.706775],[99.79115,28.700341],[99.80903,28.689619],[99.820502,28.680627],[99.828408,28.672565],[99.832904,28.664711],[99.836625,28.654039],[99.838485,28.637322],[99.838485,28.626082],[99.840552,28.614662],[99.845616,28.60381],[99.858536,28.591873],[99.868768,28.5881],[99.878483,28.586421],[99.889955,28.58624],[99.904631,28.583475],[99.921219,28.576654],[99.93388,28.569368],[99.945094,28.55973],[99.95238,28.551875],[99.959821,28.538878],[99.980027,28.487977],[99.988657,28.471053],[100.000956,28.456196],[100.032013,28.428704],[100.047981,28.411083],[100.068342,28.384004],[100.131594,28.351035],[100.143066,28.341578],[100.150249,28.327832],[100.151954,28.313414],[100.147769,28.295844],[100.146838,28.285354],[100.149164,28.277628],[100.162341,28.266595],[100.168232,28.260343],[100.168387,28.248509],[100.162031,28.236261],[100.137382,28.21727],[100.118365,28.208046],[100.064104,28.193602],[100.046896,28.187091],[100.034649,28.17872],[100.028241,28.169366],[100.027518,28.155414],[100.029171,28.144897],[100.051702,28.105081],[100.058833,28.066142],[100.072063,28.04418],[100.094697,28.018962],[100.159551,27.964392],[100.172263,27.949302],[100.191228,27.911966],[100.202081,27.898788],[100.218514,27.888324],[100.238667,27.880392],[100.277631,27.871245],[100.28807,27.864372],[100.295925,27.852615],[100.297113,27.837991],[100.299749,27.832177],[100.296442,27.821429],[100.303263,27.780475],[100.301093,27.768667],[100.297475,27.761071],[100.302643,27.75704],[100.320626,27.73314],[100.349152,27.74673],[100.40951,27.828999],[100.418708,27.837448],[100.432041,27.845639],[100.448629,27.849282],[100.464287,27.847241],[100.482167,27.839464],[100.504026,27.826441],[100.520924,27.81931],[100.532603,27.816261],[100.543455,27.817088],[100.551051,27.819956],[100.559268,27.824529],[100.57167,27.83626],[100.579112,27.846466],[100.593271,27.870005],[100.601333,27.881089],[100.607844,27.887936],[100.614665,27.893362],[100.625414,27.897264],[100.640452,27.891528],[100.660916,27.875095],[100.872117,27.561987],[100.872892,27.548706],[100.867311,27.501242],[100.866949,27.500001],[100.866846,27.498529],[100.866949,27.494653],[100.871187,27.485325],[100.880489,27.475481],[100.901366,27.464112],[100.913562,27.459875],[100.926584,27.450676],[100.940847,27.434734],[100.97795,27.373652],[100.991748,27.330813],[100.995624,27.298437],[100.996554,27.24335],[100.99981,27.214644],[101.00384,27.197513],[101.008801,27.188444],[101.015933,27.180176],[101.02601,27.176894],[101.037172,27.17829],[101.056912,27.186816],[101.080787,27.201208],[101.08952,27.204438],[101.099442,27.205239],[101.147242,27.203224],[101.160265,27.200511],[101.168016,27.196015],[101.172822,27.191054],[101.175458,27.170332],[101.171427,27.152064],[101.154374,27.11571],[101.145537,27.090311],[101.140731,27.065351],[101.141455,27.044861],[101.152513,27.027343],[101.161195,27.016775],[101.342424,26.871047],[101.350331,26.863167],[101.357462,26.85185],[101.36294,26.836553],[101.370691,26.774645],[101.375652,26.760951],[101.387279,26.744621],[101.397666,26.735293],[101.409449,26.729454],[101.420921,26.72948],[101.430274,26.733433],[101.437096,26.741081],[101.449963,26.773637],[101.458645,26.782707],[101.468877,26.78697],[101.480555,26.787125],[101.490167,26.784154],[101.497299,26.779373],[101.500399,26.7748],[101.50288,26.766429],[101.5035,26.756455],[101.501019,26.726534],[101.498694,26.717026],[101.494663,26.70558],[101.466293,26.655479],[101.453477,26.627083],[101.449498,26.620546],[101.445002,26.615327],[101.427794,26.601787],[101.419577,26.593933],[101.413996,26.585484],[101.411826,26.576259],[101.412446,26.569671],[101.417717,26.56073],[101.423091,26.553367],[101.451203,26.530629],[101.507686,26.518227],[101.516936,26.514454],[101.525101,26.509829],[101.544169,26.494972],[101.573005,26.466628],[101.581738,26.45513],[101.589593,26.442211],[101.602357,26.40875],[101.608093,26.396916],[101.615534,26.387537],[101.628092,26.378804],[101.638479,26.373455],[101.64375,26.368442],[101.64685,26.361492],[101.643646,26.349477],[101.636308,26.341855],[101.626851,26.336041],[101.61755,26.332863],[101.610263,26.331313],[101.605767,26.329401],[101.602512,26.32661],[101.597086,26.319763],[101.579981,26.306922],[101.57657,26.303149],[101.57409,26.298602],[101.573005,26.293615],[101.577345,26.278009],[101.57781,26.272505],[101.577035,26.266769],[101.574245,26.255865],[101.57254,26.244212],[101.57316,26.238528],[101.57471,26.233412],[101.576725,26.22858],[101.582358,26.219046],[101.587422,26.214163],[101.594915,26.208685],[101.606388,26.205868],[101.614294,26.205713],[101.621115,26.207186],[101.62649,26.209305],[101.631192,26.212095],[101.635275,26.21548],[101.644887,26.227082],[101.648917,26.230363],[101.654188,26.232792],[101.659924,26.23398],[101.667934,26.232198],[101.676616,26.227702],[101.723228,26.195223],[101.763742,26.176335],[101.768858,26.171245],[101.773354,26.164114],[101.777075,26.148327],[101.777385,26.139361],[101.77537,26.124271],[101.77568,26.10652],[101.777385,26.099415],[101.78064,26.091844],[101.787927,26.082026],[101.797229,26.071871],[101.80653,26.06598],[101.834797,26.055335],[101.839913,26.041305],[101.842239,26.037662],[101.844874,26.035853],[101.849525,26.034845],[101.856657,26.036602],[101.864718,26.040297],[101.87681,26.049392],[101.882753,26.055464],[101.904147,26.087659],[101.910813,26.094997],[101.915051,26.097503],[101.921562,26.098872],[102.095505,26.082801],[102.103411,26.083783],[102.112558,26.084429],[102.117726,26.096314],[102.130697,26.114918],[102.145683,26.132152],[102.222422,26.186852],[102.232189,26.197859],[102.241336,26.214163],[102.252085,26.228864],[102.266812,26.235272],[102.290067,26.237159],[102.314923,26.242636],[102.338591,26.25124],[102.358331,26.262583],[102.375385,26.280567],[102.386908,26.298292],[102.400551,26.311805],[102.424167,26.317205],[102.446543,26.318626],[102.465095,26.322709],[102.502922,26.337669],[102.554495,26.373171],[102.568138,26.378649],[102.585036,26.375031],[102.603071,26.366272],[102.618264,26.355291],[102.62648,26.345136],[102.623431,26.318781],[102.611753,26.286975],[102.609944,26.260206],[102.646789,26.244652],[102.667821,26.225867],[102.681102,26.221604],[102.699034,26.223516],[102.711126,26.229019],[102.720273,26.237624],[102.766989,26.293408],[102.791276,26.31041],[102.821972,26.317205],[102.845537,26.327205],[102.878196,26.365058],[102.893389,26.36498],[102.892149,26.355394],[102.908685,26.349322],[102.951422,26.345136],[102.971834,26.350898],[102.988474,26.365187],[102.999533,26.383222],[103.003253,26.400353],[103.000824,26.410404],[102.991574,26.430635],[102.989611,26.441332],[102.991574,26.44606],[103.000928,26.456964],[103.003253,26.461202],[103.002633,26.468591],[102.997052,26.479624],[102.995812,26.485412],[103.000049,26.495877],[103.010281,26.50076],[103.022787,26.502155],[103.033949,26.502155],[103.039013,26.506238],[103.053483,26.527141],[103.057824,26.536288],[103.057927,26.557242],[103.048108,26.570446],[103.036326,26.582926],[103.030538,26.601787],[103.031262,26.643955],[103.029453,26.661861],[103.023717,26.680284],[103.012245,26.703797],[103.009454,26.715062],[103.006871,26.738756],[103.004183,26.750822],[102.999533,26.756016],[102.992505,26.765912],[102.975296,26.831127],[102.953282,26.861694],[102.924963,26.892183],[102.901347,26.924739],[102.893389,26.961481],[102.900727,26.992513],[102.89959,27.003055],[102.895715,27.008558],[102.884087,27.017834],[102.880367,27.023545],[102.878196,27.031968],[102.878403,27.035766],[102.879643,27.039435],[102.880367,27.047445],[102.885018,27.066281],[102.906722,27.097855],[102.913853,27.112299],[102.915662,27.134442],[102.903828,27.221698],[102.889823,27.256683],[102.886568,27.276785],[102.889462,27.291487],[102.907187,27.333732],[102.929769,27.367245],[102.94212,27.405149],[102.954832,27.420781],[102.966615,27.399051],[102.977415,27.388897],[102.991523,27.386029],[103.013175,27.386029],[103.019273,27.389207],[103.038186,27.403315],[103.047282,27.406493],[103.071053,27.40825],[103.083713,27.410575],[103.092653,27.41396],[103.106606,27.408508],[103.120765,27.412255],[103.134615,27.421944],[103.147224,27.434424],[103.150531,27.473233],[103.160453,27.497185],[103.218124,27.566871],[103.229079,27.573589],[103.249646,27.5778],[103.285045,27.580849],[103.296207,27.587851],[103.304837,27.605111],[103.28613,27.633714],[103.284425,27.64051],[103.291091,27.646168],[103.313674,27.654927],[103.318583,27.66348],[103.327006,27.673582],[103.414753,27.742906],[103.444415,27.755645],[103.451701,27.759985],[103.454957,27.768745],[103.456352,27.781354],[103.458833,27.792645],[103.465344,27.797528],[103.476919,27.799983],[103.479245,27.806339],[103.478935,27.81515],[103.482397,27.824839],[103.503274,27.849747],[103.508545,27.864527],[103.511233,27.93013],[103.518881,27.945426],[103.537019,27.961394],[103.555726,27.970309],[103.563012,27.975528],[103.564976,27.983124],[103.560222,27.98793],[103.551075,27.98793],[103.541102,27.984545],[103.533918,27.979404],[103.51423,27.971445],[103.501982,27.992013],[103.489218,28.037746],[103.474801,28.039865],[103.456662,28.037204],[103.441211,28.042397],[103.434648,28.068158],[103.436198,28.075883],[103.440332,28.083402],[103.44581,28.090301],[103.451701,28.096089],[103.456766,28.105313],[103.452942,28.123968],[103.455112,28.133942],[103.459039,28.134769],[103.538414,28.184507],[103.551747,28.206186],[103.562237,28.229311],[103.571797,28.243186],[103.581202,28.246416],[103.6027,28.247837],[103.612777,28.250007],[103.619753,28.254865],[103.626574,28.261686],[103.634222,28.267861],[103.643783,28.270497],[103.666262,28.263288],[103.683625,28.246752],[103.697268,28.228406],[103.708947,28.215875],[103.722279,28.215539],[103.749461,28.242798],[103.7892,28.255562],[103.880306,28.325739],[103.870435,28.343826],[103.85979,28.400851],[103.82155,28.484877],[103.797107,28.525443],[103.795246,28.531179],[103.805168,28.551668],[103.828422,28.58748],[103.836691,28.604921],[103.832453,28.620579],[103.841755,28.636289],[103.845372,28.653652],[103.851057,28.668121],[103.866611,28.675201],[103.87059,28.666313],[103.872813,28.657218],[103.874053,28.636702],[103.878187,28.630552],[103.888057,28.630733],[103.899529,28.633136],[103.908831,28.633601],[103.928158,28.626393],[103.940147,28.619804],[103.952601,28.614972],[103.973065,28.613112],[103.99265,28.616316],[104.029237,28.630423],[104.047841,28.633601],[104.056781,28.630475],[104.078898,28.613112],[104.092179,28.612724],[104.101326,28.616083],[104.119878,28.62678],[104.140186,28.633421],[104.178892,28.63864],[104.232532,28.639699],[104.239974,28.643523],[104.246795,28.65497],[104.248345,28.661998],[104.250929,28.661584],[104.260748,28.65068],[104.27532,28.638924],[104.292735,28.632258],[104.312011,28.630552],[104.332784,28.633601],[104.341776,28.637529],[104.346892,28.642025],[104.352525,28.645745],[104.36348,28.64727],[104.383582,28.646495],[104.395106,28.643601],[104.414227,28.640113],[104.428954,28.634532],[104.438411,28.629209],[104.442959,28.624532],[104.445129,28.620062],[104.445749,28.614429],[104.443992,28.609624],[104.439961,28.60536],[104.43252,28.602466],[104.415157,28.597428],[104.407715,28.594431],[104.401359,28.5904],[104.396088,28.585181],[104.387561,28.573915],[104.380999,28.56898],[104.371542,28.565182],[104.36224,28.565414],[104.352422,28.567507],[104.344412,28.571616],[104.334955,28.569523],[104.3163,28.559988],[104.305448,28.555699],[104.262143,28.545028],[104.254546,28.539499],[104.25005,28.530791],[104.249895,28.520094],[104.251756,28.51056],[104.255942,28.500069],[104.256252,28.498519],[104.256872,28.494643],[104.25713,28.485652],[104.256252,28.475549],[104.256562,28.464619],[104.261988,28.445447],[104.25806,28.414338],[104.264003,28.394882],[104.262608,28.358631],[104.263538,28.345996],[104.268499,28.333801],[104.277491,28.322768],[104.29413,28.310494],[104.311959,28.303544],[104.36193,28.290315],[104.376503,28.282305],[104.386735,28.273442],[104.394176,28.263598],[104.417327,28.23931],[104.423993,28.229156],[104.423218,28.220035],[104.409731,28.206056],[104.405338,28.197659],[104.405855,28.187789],[104.409731,28.178177],[104.436861,28.129343],[104.440271,28.120532],[104.443062,28.110507],[104.444612,28.099887],[104.442442,28.089655],[104.436551,28.08162],[104.427869,28.075341],[104.383324,28.058727],[104.333818,28.046738],[104.327203,28.037901],[104.328444,28.02307],[104.349838,27.990178],[104.36317,27.973823],[104.375366,27.961679],[104.482491,27.890985],[104.492103,27.885895],[104.499906,27.883001],[104.528276,27.876748],[104.572046,27.854062],[104.588479,27.848275],[104.604758,27.845846],[104.631629,27.848972],[104.643722,27.852202],[104.654884,27.856414],[104.702374,27.88295],[104.714622,27.884345],[104.728006,27.881942],[104.759115,27.873389],[104.773429,27.872485],[104.785987,27.874475],[104.833219,27.888556],[104.875852,27.892691],[104.887996,27.895765],[104.897401,27.901114],[104.904429,27.908839],[104.910165,27.91765],[104.918382,27.924239],[104.940809,27.932068],[104.950214,27.937572],[104.956106,27.945736],[104.958276,27.956537],[104.953005,27.989248],[104.952385,27.999273],[104.952488,28.000436],[104.960136,28.021597],[104.966182,28.047797],[104.971919,28.056066],[104.97936,28.063119],[105.017394,28.085237],[105.055738,28.088131],[105.171906,28.061672],[105.181725,28.055316],[105.185911,28.047978],[105.187461,28.020874],[105.191647,28.00966],[105.203274,28.001547],[105.215211,27.999428],[105.224203,27.999454],[105.229681,28.000307],[105.254795,28.006895],[105.265647,28.008058],[105.275104,28.006094],[105.280427,28.002529],[105.282391,28.000746],[105.282391,27.994054],[105.27774,27.950801],[105.273709,27.932921],[105.268748,27.918425],[105.257379,27.900261],[105.231334,27.871503],[105.228234,27.866775],[105.22813,27.855794],[105.233711,27.840678],[105.250765,27.8167],[105.273089,27.79466],[105.276965,27.7874],[105.273089,27.77771],[105.270143,27.767659],[105.269988,27.758978],[105.296963,27.721745],[105.291382,27.70265],[105.284458,27.660172],[105.27774,27.638107],[105.266578,27.613121],[105.263632,27.608754],[105.25061,27.592476],[105.247767,27.58798],[105.246114,27.582503],[105.246424,27.543125],[105.244718,27.530749],[105.242858,27.525452],[105.240223,27.520853],[105.223273,27.499846],[105.221567,27.494756],[105.221102,27.489356],[105.221567,27.477031],[105.220482,27.457446],[105.219397,27.451451],[105.217227,27.446413],[105.214281,27.442124],[105.203274,27.431168],[105.200483,27.426879],[105.198468,27.42197],[105.198623,27.403987],[105.197383,27.398638],[105.192887,27.395021],[105.185911,27.39316],[105.174077,27.39378],[105.165705,27.395098],[105.124777,27.408508],[105.082558,27.412513],[105.06876,27.411195],[105.051035,27.40564],[105.028246,27.394271],[105.022045,27.39006],[104.998429,27.367942],[104.990987,27.362309],[104.928149,27.341923],[104.922878,27.339624],[104.913524,27.334223],[104.909235,27.331123],[104.870891,27.309755],[104.864018,27.30792],[104.856318,27.306809],[104.844071,27.307584],[104.830222,27.312157],[104.812238,27.324327],[104.802472,27.329082],[104.79658,27.33089],[104.790379,27.332105],[104.783403,27.332208],[104.776995,27.331329],[104.769864,27.32934],[104.751725,27.321692],[104.742579,27.319573],[104.729556,27.319806],[104.722115,27.321899],[104.710591,27.326911],[104.704855,27.328694],[104.690385,27.329159],[104.619485,27.315568],[104.594216,27.313785],[104.548275,27.321227],[104.52223,27.317868],[104.515564,27.318281],[104.509673,27.319289],[104.469159,27.331872],[104.45226,27.340993],[104.443682,27.34722],[104.401514,27.392928],[104.373557,27.437499],[104.369991,27.441271],[104.365754,27.444527],[104.361,27.447007],[104.353093,27.445638],[104.344412,27.441194],[104.331338,27.429515],[104.324981,27.422254],[104.314439,27.407345],[104.263693,27.370629],[104.252686,27.359157],[104.24695,27.349545],[104.249585,27.317661],[104.249275,27.31146],[104.247725,27.305982],[104.24509,27.301383],[104.238423,27.295208],[104.20256,27.275622],[104.184887,27.271824],[104.174345,27.271514],[104.168453,27.274175],[104.155999,27.28371],[104.140755,27.297998],[104.123598,27.31022],[104.094866,27.32487],[104.066754,27.336135],[104.047117,27.34629],[104.029857,27.358795],[104.014044,27.372981],[104.001022,27.387269],[103.995234,27.391843],[103.986397,27.397165],[103.981126,27.399517],[103.97508,27.400989],[103.968414,27.401687],[103.953841,27.401118],[103.939837,27.399026],[103.923714,27.395021],[103.911311,27.39037],[103.906351,27.387192],[103.9017,27.383238],[103.894568,27.374066],[103.859325,27.315387],[103.818501,27.27185],[103.79783,27.254848],[103.695407,27.151702],[103.660887,27.127078],[103.623319,27.105116],[103.606834,27.091964],[103.602803,27.087908],[103.599289,27.083128],[103.596447,27.076074],[103.596292,27.069666],[103.597429,27.063801],[103.606834,27.04977],[103.637116,27.018429],[103.65913,27.027963],[103.674995,27.039978],[103.684607,27.048918],[103.691997,27.052251],[103.700885,27.052432],[103.706466,27.050003],[103.711324,27.046825],[103.722899,27.036464],[103.729927,27.028816],[103.739229,27.016155],[103.748996,27.005148],[103.751115,27.000755],[103.751321,27.000187],[103.751631,26.999515],[103.753492,26.993624],[103.756127,26.981945],[103.759073,26.976442],[103.769925,26.967166],[103.774266,26.962334],[103.778296,26.955874],[103.780157,26.949828],[103.780157,26.94373],[103.778916,26.938201],[103.772715,26.923137],[103.771682,26.917711],[103.771372,26.912079],[103.774162,26.897454],[103.777366,26.887093],[103.778296,26.880013],[103.776436,26.874794],[103.771785,26.8719],[103.749926,26.863916],[103.737782,26.862573],[103.732718,26.860557],[103.729617,26.856501],[103.726827,26.845287],[103.724811,26.840042],[103.721866,26.835856],[103.718455,26.831903],[103.715665,26.826011],[103.715148,26.81596],[103.717318,26.798959],[103.724811,26.7802],[103.729927,26.758005],[103.731012,26.746817],[103.733493,26.740539],[103.737369,26.736146],[103.743105,26.734983],[103.749254,26.7355],[103.765894,26.741159],[103.772095,26.740461],[103.774576,26.736844],[103.775092,26.731702],[103.763103,26.694366],[103.762483,26.688216],[103.763103,26.662636],[103.758453,26.63778],[103.757832,26.629434],[103.759228,26.623414],[103.762483,26.61574],[103.775713,26.590806],[103.781294,26.582693],[103.786565,26.577112],[103.829249,26.547114],[103.860255,26.532231],[103.883096,26.52435],[103.906351,26.518692],[103.915807,26.517787],[103.996474,26.518485],[104.0204,26.514196],[104.027067,26.515384],[104.032648,26.517839],[104.040864,26.524428],[104.044585,26.528071],[104.046807,26.533032],[104.050631,26.550059],[104.054972,26.560033],[104.076728,26.596],[104.079828,26.60016],[104.110989,26.634473],[104.119102,26.641113],[104.123753,26.643904],[104.13445,26.648296],[104.140186,26.650027],[104.146698,26.650932],[104.153364,26.651242],[104.159565,26.650337],[104.168453,26.647521],[104.218063,26.626618],[104.224471,26.625481],[104.231292,26.625016],[104.317695,26.628892],[104.32431,26.629796],[104.330614,26.631269],[104.336195,26.633207],[104.346117,26.638038],[104.350613,26.640932],[104.354799,26.644136],[104.358519,26.647831],[104.380999,26.676072],[104.383944,26.680439],[104.386011,26.685503],[104.388595,26.703797],[104.390352,26.709249],[104.393143,26.713744],[104.398103,26.717181],[104.40508,26.719015],[104.417172,26.718163],[104.424458,26.715837],[104.429884,26.71253],[104.433605,26.708913],[104.436706,26.704779],[104.460012,26.663231],[104.462027,26.658192],[104.463422,26.65256],[104.463733,26.626644],[104.465128,26.617187],[104.466213,26.613466],[104.473189,26.601813],[104.482129,26.593054],[104.489312,26.589514],[104.495979,26.587706],[104.500319,26.587964],[104.50497,26.588662],[104.515409,26.59215],[104.522644,26.593442],[104.531532,26.593545],[104.545485,26.590961],[104.553236,26.588119],[104.559437,26.584708],[104.563675,26.58153],[104.56755,26.578068],[104.570651,26.57396],[104.57308,26.569205],[104.574372,26.563288],[104.57556,26.550499],[104.578351,26.544013],[104.581503,26.53944],[104.597781,26.524738],[104.620312,26.502388],[104.623103,26.500372],[104.623723,26.500062],[104.626513,26.497659],[104.629149,26.492001],[104.631474,26.483293],[104.633335,26.466421],[104.636125,26.457636],[104.639019,26.451021],[104.642481,26.44712],[104.646202,26.443658],[104.652868,26.435751],[104.655349,26.431048],[104.66372,26.40397],[104.667958,26.394927],[104.675089,26.385496],[104.676123,26.38348],[104.676949,26.38162],[104.676794,26.380354],[104.675503,26.379269],[104.671782,26.377563],[104.667751,26.375031],[104.663617,26.371801],[104.659845,26.36821],[104.653643,26.359864],[104.648217,26.350821],[104.645117,26.346919],[104.636745,26.340511],[104.611734,26.328316],[104.561194,26.290695],[104.545175,26.270412],[104.543004,26.263358],[104.540679,26.25186],[104.541144,26.229588],[104.535046,26.197755],[104.531997,26.19096],[104.526571,26.183363],[104.509208,26.165664],[104.506211,26.161478],[104.504557,26.155432],[104.50497,26.147422],[104.508898,26.135149],[104.515254,26.121558],[104.516959,26.115383],[104.516959,26.107554],[104.513549,26.095074],[104.504557,26.077168],[104.502697,26.069934],[104.501456,26.060451],[104.50125,26.04394],[104.498976,26.030789],[104.463422,25.981515],[104.45102,25.971671],[104.441718,25.966193],[104.436551,25.964023],[104.413761,25.956917],[104.392936,25.947874],[104.390042,25.943611],[104.390042,25.937254],[104.396657,25.92586],[104.402134,25.919865],[104.407405,25.915292],[104.411901,25.912269],[104.415622,25.908858],[104.418567,25.902192],[104.420738,25.892993],[104.421823,25.875268],[104.420583,25.856923],[104.417327,25.845942],[104.393556,25.791191],[104.391386,25.780055],[104.388492,25.771528],[104.382911,25.763544],[104.375883,25.755948],[104.371852,25.752744],[104.367046,25.750496],[104.361,25.749695],[104.354954,25.750341],[104.349063,25.751813],[104.31847,25.765637],[104.313044,25.76711],[104.30767,25.767032],[104.302812,25.765017],[104.299505,25.760831],[104.298626,25.754501],[104.299401,25.745974],[104.30767,25.710162],[104.307773,25.690499],[104.306223,25.677916],[104.306223,25.664765],[104.307153,25.658486],[104.308703,25.652388],[104.313044,25.645024],[104.32064,25.635852],[104.334955,25.624354],[104.349941,25.614173],[104.374022,25.601461],[104.378156,25.598283],[104.394073,25.590325],[104.422443,25.579266],[104.429884,25.571385],[104.432365,25.556735],[104.432675,25.506815],[104.43345,25.500666],[104.437171,25.498573],[104.468073,25.491106],[104.484661,25.492139],[104.497426,25.494387],[104.523781,25.505524],[104.535046,25.508056],[104.546105,25.501286],[104.553546,25.484543],[104.558404,25.421859],[104.565845,25.38119],[104.595146,25.36809],[104.604137,25.362535],[104.612354,25.356127],[104.668888,25.296828],[104.676949,25.290291],[104.690902,25.282126],[104.713691,25.273083],[104.717774,25.272153],[104.754206,25.267683],[104.778235,25.26174],[104.782886,25.259027],[104.786607,25.255513],[104.789087,25.250759],[104.789449,25.24448],[104.787434,25.2374],[104.779992,25.227969],[104.77405,25.223164],[104.767797,25.219934],[104.761027,25.219314],[104.73183,25.219184],[104.725525,25.216032],[104.719738,25.210942],[104.716947,25.197015],[104.716637,25.188463],[104.718704,25.175053],[104.719117,25.168542],[104.717412,25.159447],[104.713846,25.148672],[104.694003,25.11547],[104.691212,25.10932],[104.689042,25.101259],[104.687647,25.08741],[104.688732,25.07356],[104.692607,25.060564],[104.701289,25.040617],[104.7047,25.029661],[104.707025,25.01731],[104.704855,25.008732],[104.700514,24.998965],[104.68036,24.976615],[104.674262,24.971732],[104.670542,24.969251],[104.658139,24.95796],[104.626513,24.914345],[104.613491,24.900444],[104.605533,24.895509],[104.599952,24.889799],[104.571736,24.850344],[104.552203,24.833549],[104.54564,24.813421],[104.539749,24.743115],[104.539852,24.741772],[104.537578,24.741255],[104.511998,24.718414],[104.494635,24.698209],[104.492516,24.686142],[104.485437,24.672448],[104.48306,24.665782],[104.48306,24.650795],[104.484661,24.636016],[104.50187,24.57819],[104.561608,24.473442],[104.569256,24.443418],[104.599176,24.402516],[104.667028,24.339755],[104.672299,24.336448],[104.678913,24.33327],[104.689507,24.329523],[104.698033,24.328309],[104.706095,24.328205],[104.711986,24.329601],[104.717102,24.3319],[104.721495,24.334794],[104.725215,24.338282],[104.728109,24.342468],[104.730176,24.347403],[104.73059,24.352932],[104.730176,24.358849],[104.728729,24.364198],[104.726249,24.368771],[104.723148,24.37288],[104.7078,24.38647],[104.701134,24.394248],[104.696018,24.403343],[104.694468,24.408717],[104.693383,24.41466],[104.692866,24.427398],[104.694726,24.439335],[104.699429,24.448741],[104.705785,24.453779],[104.715087,24.458843],[104.735447,24.465665],[104.745214,24.467783],[104.752655,24.468326],[104.774515,24.461944],[104.859419,24.453727],[104.871511,24.450937],[104.882053,24.446829],[104.90877,24.429879],[104.915591,24.426494],[104.924583,24.423032],[104.941171,24.418381],[104.951868,24.416805],[104.961067,24.416417],[104.967113,24.417605],[104.972694,24.419518],[104.982926,24.424375],[105.015844,24.428897],[105.060802,24.43068],[105.080232,24.429439],[105.09341,24.426881],[105.102092,24.420525],[105.109533,24.413626],[105.112995,24.409828],[105.115476,24.405203],[105.117439,24.400346],[105.11899,24.394713],[105.12116,24.369159],[105.123537,24.364301],[105.126328,24.36009],[105.141211,24.346111],[105.166945,24.32836],[105.170563,24.324769],[105.173457,24.320505],[105.175524,24.315622],[105.176247,24.309912],[105.174077,24.264927],[105.175007,24.250484],[105.173663,24.227255],[105.178624,24.211778],[105.179348,24.206068],[105.178728,24.200099],[105.175834,24.189118],[105.171906,24.178835],[105.169943,24.167362],[105.170253,24.161239],[105.173147,24.150645],[105.175524,24.145942],[105.184205,24.133308],[105.190872,24.125582],[105.253038,24.085507],[105.270608,24.077471],[105.282907,24.074061],[105.287868,24.076283],[105.292209,24.079306],[105.295,24.083569],[105.296395,24.088685],[105.296033,24.09424],[105.294845,24.099589],[105.287972,24.114058],[105.286421,24.119329],[105.286318,24.124342],[105.288798,24.128528],[105.296705,24.129354],[105.304611,24.127003],[105.310813,24.124187],[105.320269,24.118141],[105.35081,24.093026],[105.379697,24.075585],[105.397422,24.068712],[105.407034,24.063699],[105.41215,24.059669],[105.422072,24.049514],[105.431839,24.041944],[105.43959,24.038766],[105.447187,24.037603],[105.472198,24.042512],[105.493592,24.050109],[105.497778,24.052537],[105.499483,24.05525],[105.500258,24.057111],[105.501602,24.06463],[105.503204,24.069746],[105.515658,24.099847],[105.520464,24.116229],[105.523254,24.120699],[105.527285,24.123902],[105.532091,24.126305],[105.537982,24.127623],[105.551315,24.129096],[105.557516,24.13044],[105.579272,24.137984],[105.592449,24.140956],[105.601596,24.141524],[105.608262,24.140284],[105.613998,24.138139],[105.618494,24.135323],[105.622215,24.131912],[105.625315,24.12783],[105.636477,24.109407],[105.638545,24.102198],[105.64087,24.082484],[105.645056,24.076231],[105.652187,24.069978],[105.66738,24.060909],[105.676888,24.056956],[105.684743,24.05463],[105.719211,24.051762],[105.735179,24.046982],[105.771043,24.025175],[105.780035,24.022126],[105.787993,24.020653],[105.794814,24.020963],[105.819619,24.026001],[105.833106,24.027242],[105.872225,24.02471],[105.878582,24.026389],[105.882457,24.029722],[105.884318,24.03427],[105.884628,24.039851],[105.884008,24.051943],[105.884318,24.057653],[105.885868,24.063002],[105.888348,24.067575],[105.891604,24.071348],[105.899717,24.077704],[105.904988,24.079952],[105.910569,24.081502],[105.959248,24.084603],[105.965346,24.085894],[105.970772,24.087729],[105.975113,24.090623],[105.978989,24.094008],[105.988394,24.105997],[105.993562,24.109872],[106.000538,24.112844],[106.014232,24.113619],[106.021105,24.110906],[106.018573,24.096979],[106.014336,24.088918],[106.008238,24.081709],[106.006377,24.072691],[106.015162,24.059436],[106.036091,24.044734],[106.060586,24.032022],[106.082962,24.016984],[106.087509,24.014271],[106.140064,23.988484],[106.151847,23.980604],[106.157428,23.973731],[106.155722,23.969054],[106.147506,23.956471],[106.14549,23.95244],[106.14425,23.948952],[106.143475,23.944921],[106.143785,23.93965],[106.14518,23.934715],[106.193756,23.869396],[106.196392,23.864203],[106.198407,23.859164],[106.199647,23.853686],[106.199957,23.847925],[106.198872,23.842421],[106.196237,23.838132],[106.192206,23.834902],[106.187038,23.832809],[106.149676,23.826091],[106.14456,23.823972],[106.140374,23.820898],[106.136809,23.817203],[106.134432,23.812552],[106.133088,23.807488],[106.133088,23.802088],[106.134122,23.796739],[106.152157,23.750411],[106.153862,23.74005],[106.153707,23.734081],[106.152622,23.728345],[106.149366,23.717545],[106.140839,23.697469],[106.137584,23.686591],[106.136344,23.674059],[106.137894,23.622047],[106.128127,23.540656],[106.12637,23.53523],[106.124096,23.53058],[106.120686,23.526781],[106.115828,23.524327],[106.110402,23.522466],[106.09862,23.519702],[106.093194,23.517815],[106.088543,23.515257],[106.084357,23.51226],[106.073453,23.500323],[106.07087,23.495956],[106.064978,23.488722],[106.060896,23.485414],[106.05609,23.483011],[106.016196,23.472004],[106.004879,23.469963],[105.98302,23.469033],[105.969997,23.470842],[105.959248,23.474743],[105.918476,23.497868],[105.91584,23.500013],[105.915324,23.5004],[105.912585,23.502571],[105.885248,23.517273],[105.879977,23.519185],[105.873879,23.520554],[105.867264,23.521381],[105.860288,23.521536],[105.853932,23.520839],[105.848041,23.519392],[105.84339,23.516885],[105.839307,23.51363],[105.830781,23.502803],[105.829851,23.501098],[105.829541,23.500426],[105.827835,23.495543],[105.823495,23.486887],[105.820704,23.482572],[105.803651,23.470635],[105.785306,23.46017],[105.777244,23.453943],[105.773523,23.450378],[105.758641,23.428286],[105.745773,23.413842],[105.733216,23.404773],[105.728668,23.402215],[105.723397,23.400174],[105.717506,23.399011],[105.710788,23.398469],[105.697662,23.398934],[105.693115,23.396143],[105.692081,23.389839],[105.698593,23.37524],[105.701228,23.366429],[105.701693,23.359298],[105.699523,23.354673],[105.696112,23.350797],[105.692391,23.347361],[105.687585,23.345035],[105.682159,23.343666],[105.676268,23.344002],[105.670481,23.345294],[105.651102,23.354957],[105.645676,23.356585],[105.640095,23.356818],[105.635289,23.355138],[105.631723,23.351702],[105.628933,23.347283],[105.627486,23.341599],[105.626762,23.335708],[105.626452,23.329662],[105.627382,23.317569],[105.627072,23.304676],[105.625832,23.298888],[105.624282,23.293514],[105.621801,23.288786],[105.618804,23.284651],[105.577721,23.250416],[105.577566,23.249977],[105.556586,23.231941],[105.532401,23.206103],[105.527285,23.197577],[105.527595,23.183133],[105.521394,23.163367],[105.521325,23.163148],[105.517156,23.167734],[105.473851,23.194503],[105.464342,23.206001],[105.443982,23.245146],[105.443982,23.245223],[105.430856,23.267806],[105.425895,23.273206],[105.414475,23.278477],[105.406672,23.277469],[105.399127,23.274885],[105.389515,23.275428],[105.375717,23.2815],[105.359646,23.291551],[105.34404,23.304186],[105.332258,23.317958],[105.324351,23.336742],[105.320062,23.354338],[105.312155,23.36581],[105.293655,23.366275],[105.280064,23.358782],[105.245544,23.330179],[105.235933,23.319792],[105.227664,23.300646],[105.223892,23.281707],[105.217536,23.265351],[105.200896,23.254008],[105.189579,23.252199],[105.182448,23.254421],[105.176608,23.257755],[105.16896,23.259434],[105.165808,23.260571],[105.158418,23.265764],[105.155627,23.26685],[105.150356,23.264757],[105.147773,23.260881],[105.145912,23.256695],[105.142398,23.25375],[105.06106,23.232459],[105.046642,23.226826],[105.015688,23.206827],[104.981426,23.190369],[104.945201,23.159828],[104.935072,23.154273],[104.921016,23.155771],[104.894765,23.170344],[104.880864,23.171713],[104.870064,23.163548],[104.866756,23.149467],[104.865516,23.133473],[104.861279,23.119598],[104.835905,23.099754],[104.811462,23.096188],[104.797923,23.085569],[104.827017,22.954285],[104.827947,22.934157],[104.823606,22.924132],[104.774204,22.896226],[104.762887,22.884728],[104.728212,22.839098],[104.715344,22.827083],[104.700772,22.818247],[104.683202,22.812175],[104.662738,22.810934],[104.629045,22.820779],[104.609821,22.823001],[104.604447,22.82021],[104.594266,22.809022],[104.588427,22.806852],[104.579229,22.808867],[104.574474,22.812278],[104.570495,22.816257],[104.564656,22.819952],[104.561245,22.824396],[104.562692,22.829848],[104.562382,22.834395],[104.553545,22.836049],[104.55122,22.832845],[104.53334,22.814397],[104.468641,22.764865],[104.449004,22.745176],[104.361911,22.692536],[104.35547,22.688642],[104.340173,22.686368],[104.325239,22.692518],[104.304413,22.704662],[104.249481,22.72833],[104.236821,22.742076],[104.229689,22.761945],[104.228759,22.783442],[104.2331,22.804811],[104.241161,22.824396],[104.213256,22.825016],[104.128197,22.796827],[104.099051,22.794605],[104.086856,22.791556],[104.073316,22.782667],[104.065978,22.774012],[104.054041,22.753754],[104.044739,22.745176],[104.02381,22.719183],[104.01394,22.691019],[104.007481,22.630248],[104.003398,22.614951],[103.990066,22.585341],[103.98557,22.570251],[103.98557,22.554542],[103.987378,22.540176],[103.985363,22.527153],[103.973994,22.515268],[103.959525,22.507103],[103.950946,22.516456],[103.940715,22.524673],[103.925418,22.528238],[103.917047,22.533251],[103.902784,22.558572],[103.894619,22.569218],[103.888676,22.57175],[103.872657,22.57361],[103.866817,22.575419],[103.844183,22.599294],[103.836328,22.602756],[103.829662,22.609164],[103.809663,22.638723],[103.805322,22.647404],[103.794212,22.659445],[103.726412,22.716289],[103.65851,22.793209],[103.646934,22.799049],[103.603836,22.776027],[103.590038,22.768017],[103.582545,22.755796],[103.576809,22.740835],[103.568334,22.724971],[103.547147,22.700683],[103.544563,22.691019],[103.549923,22.648662],[103.550919,22.64079],[103.546217,22.631436],[103.514281,22.587356],[103.503635,22.581413],[103.485445,22.584101],[103.473146,22.591645],[103.447515,22.618259],[103.410928,22.674741],[103.404313,22.688797],[103.402349,22.706522],[103.404003,22.723885],[103.401729,22.737838],[103.387518,22.745176],[103.37894,22.756777],[103.36876,22.767139],[103.357081,22.776027],[103.344162,22.782977],[103.321579,22.790393],[103.309642,22.787938],[103.269954,22.723265],[103.252488,22.678565],[103.244891,22.668695],[103.228407,22.655828],[103.168462,22.626475],[103.141745,22.607045],[103.130015,22.577951],[103.132599,22.569786],[103.144691,22.555782],[103.145724,22.54555],[103.142004,22.537799],[103.091257,22.505087],[103.074411,22.498163],[103.058288,22.495476],[103.04418,22.486484],[103.044852,22.472893],[103.049089,22.456822],[103.045059,22.440544],[103.029039,22.430157],[103.008937,22.430312],[102.989093,22.437598],[102.956537,22.459715],[102.919588,22.469224],[102.902587,22.477234],[102.893698,22.487362],[102.859282,22.550511],[102.853132,22.568443],[102.845174,22.585238],[102.831842,22.599707],[102.813393,22.608699],[102.771225,22.617794],[102.751898,22.625287],[102.692729,22.670504],[102.672161,22.678358],[102.632267,22.684973],[102.612475,22.691588],[102.606119,22.696704],[102.591185,22.712568],[102.586689,22.716082],[102.576198,22.713808],[102.570359,22.707091],[102.56576,22.699546],[102.55837,22.694947],[102.535787,22.695825],[102.528914,22.707814],[102.526331,22.725952],[102.515789,22.745176],[102.494343,22.760395],[102.467781,22.768586],[102.442718,22.765175],[102.425613,22.745305],[102.425613,22.745176],[102.415226,22.709829],[102.407268,22.693448],[102.394969,22.680529],[102.384634,22.677738],[102.373162,22.678358],[102.362723,22.677428],[102.35585,22.669935],[102.356263,22.658721],[102.363343,22.651435],[102.372697,22.645751],[102.378588,22.639084],[102.382463,22.630816],[102.384324,22.628852],[102.376882,22.615572],[102.324649,22.565118],[102.252549,22.495476],[102.242524,22.477182],[102.236633,22.443437],[102.23131,22.426333],[102.218029,22.410675],[102.20356,22.412483],[102.186558,22.421062],[102.164544,22.425506],[102.147026,22.421062],[102.128835,22.410881],[102.118655,22.397549],[102.107345,22.397549],[102.10062,22.405765],[102.099948,22.41486],[102.095349,22.423129],[102.085531,22.429123],[102.075919,22.43243],[102.014579,22.446073],[101.994994,22.447416],[101.97422,22.445143],[101.952877,22.436874],[101.909366,22.435893],[101.891641,22.429691],[101.881512,22.412173],[101.877275,22.391864],[101.867921,22.378842]]]}}]}